IRIDIUM 159             
1 43578U 18061K   23304.19141239  .00000169  00000+0  53440-4 0  9990
2 43578  86.3924  97.9332 0002059  88.9733 271.1698 14.34219324275784
IRIDIUM 180             
1 43922U 19002A   23304.19091877  .00000548  00000+0  18854-3 0  9991
2 43922  86.4014  34.7905 0002404  92.3320 267.8151 14.34219425251432
IRIDIUM 176             
1 43923U 19002B   23303.77518147  .00002159  00000+0  33860-3 0  9993
2 43923  86.6145  34.9971 0002369  92.7452 267.4037 14.72234838257943
IRIDIUM 168             
1 43924U 19002C   23304.53341278  .00000535  00000+0  18389-3 0  9993
2 43924  86.4017  34.6976 0002268  91.0666 269.0790 14.34220981251422
IRIDIUM 173             
1 43925U 19002D   23304.52072293  .00000534  00000+0  18362-3 0  9991
2 43925  86.4013  34.6311 0002200  91.8317 268.3130 14.34222297251410
IRIDIUM 169             
1 43926U 19002E   23304.10435371  .00000719  00000+0  22843-3 0  9990
2 43926  86.4222  66.4158 0001020 254.7374 105.3711 14.38605162252198
IRIDIUM 172             
1 43927U 19002F   23304.30507803  .00000489  00000+0  16740-3 0  9996
2 43927  86.4013  34.7262 0002235  91.7481 268.3971 14.34219375251389
IRIDIUM 175             
1 43928U 19002G   23304.17689795  .00001932  00000+0  30265-3 0  9995
2 43928  86.1557  20.9826 0002238  93.7504 266.3968 14.72226125257994
